$$SOE
2460721.500000000, A.D. 2025-Feb-15 00:00:00.0000, 2.435268789944764E+08, -1.752537040416960E+08, 7.404513353776641E+06,
2460728.500000000, A.D. 2025-Feb-22 00:00:00.0000, 2.497317097583527E+08, -1.629685294946707E+08, 6.970856123987183E+06,
2460735.500000000, A.D. 2025-Mar-01 00:00:00.0000, 2.554797926500999E+08, -1.503854232934871E+08, 6.524452275612444E+06,
2460742.500000000, A.D. 2025-Mar-08 00:00:00.0000, 2.607522722460724E+08, -1.375224817571813E+08, 6.065904677690245E+06,
2460749.500000000, A.D. 2025-Mar-15 00:00:00.0000, 2.655310543145140E+08, -1.243992752450939E+08, 5.595873827087007E+06,
2460756.500000000, A.D. 2025-Mar-22 00:00:00.0000, 2.697989467271390E+08, -1.110368248158107E+08, 5.115077767175555E+06,
2460763.500000000, A.D. 2025-Mar-29 00:00:00.0000, 2.735398039132898E+08, -9.745756513319667E+07, 4.624291110482689E+06,
2460770.500000000, A.D. 2025-Apr-05 00:00:00.0000, 2.767386731219778E+08, -8.368528960641271E+07, 4.124343351479508E+06,
2460777.500000000, A.D. 2025-Apr-12 00:00:00.0000, 2.793819382891565E+08, -6.974507708004691E+07, 3.616116624847785E+06,
2460784.500000000, A.D. 2025-Apr-19 00:00:00.0000, 2.814574588695143E+08, -5.566320072024699E+07, 3.100542836521897E+06,
2460791.500000000, A.D. 2025-Apr-26 00:00:00.0000, 2.829547013321133E+08, -4.146701945258231E+07, 2.578600122030320E+06,
2460798.500000000, A.D. 2025-May-03 00:00:00.0000, 2.838648608132644E+08, -2.718485250811537E+07, 2.051308634902720E+06,
2460805.500000000, A.D. 2025-May-10 00:00:00.0000, 2.841809703673730E+08, -1.284583808865989E+07, 1.519725691616363E+06,
2460812.500000000, A.D. 2025-May-17 00:00:00.0000, 2.838979953842483E+08, 1.520222339250227E+06, 9.849403119868233E+05,
2460819.500000000, A.D. 2025-May-24 00:00:00.0000, 2.830129110856261E+08, 1.588303216182644E+07, 4.480671967552360E+05,
2460826.500000000, A.D. 2025-May-31 00:00:00.0000, 2.815247615424890E+08, 3.021197815063928E+07, -8.975979353625141E+04,
2460833.500000000, A.D. 2025-Jun-07 00:00:00.0000, 2.794346982049738E+08, 4.447631797277552E+07, -6.273944307764284E+05,
2460840.500000000, A.D. 2025-Jun-14 00:00:00.0000, 2.767459944404632E+08, 5.864537309898064E+07, -1.163684913332745E+06,
2460847.500000000, A.D. 2025-Jun-21 00:00:00.0000, 2.734640366571279E+08, 7.268872072001278E+07, -1.697480927486304E+06,
2460854.500000000, A.D. 2025-Jun-28 00:00:00.0000, 2.695962950085846E+08, 8.657638322786112E+07, -2.227641001867224E+06,
2460861.500000000, A.D. 2025-Jul-05 00:00:00.0000, 2.651522725746016E+08, 1.002790142326944E+08, -2.753039719257109E+06,
2460868.500000000, A.D. 2025-Jul-12 00:00:00.0000, 2.601434327794853E+08, 1.137680772408214E+08, -3.272574623965338E+06,
2460875.500000000, A.D. 2025-Jul-19 00:00:00.0000, 2.545831066906110E+08, 1.270160135610689E+08, -3.785172777514458E+06,
2460882.500000000, A.D. 2025-Jul-26 00:00:00.0000, 2.484863823022809E+08, 1.399963968238586E+08, -4.289796885307729E+06,
2460889.500000000, A.D. 2025-Aug-02 00:00:00.0000, 2.418699781308392E+08, 1.526840719453653E+08, -4.785450910738058E+06,
2460896.500000000, A.D. 2025-Aug-09 00:00:00.0000, 2.347521036788829E+08, 1.650552767628376E+08, -5.271185107257001E+06,
2460903.500000000, A.D. 2025-Aug-16 00:00:00.0000, 2.271523095641294E+08, 1.770877449982667E+08, -5.746100422811978E+06,
2460910.500000000, A.D. 2025-Aug-23 00:00:00.0000, 2.190913304325650E+08, 1.887607897924431E+08, -6.209352259946831E+06,
2460917.500000000, A.D. 2025-Aug-30 00:00:00.0000, 2.105909238430566E+08, 2.000553682341210E+08, -6.660153539480552E+06,
2460924.500000000, A.D. 2025-Sep-06 00:00:00.0000, 2.016737064866250E+08, 2.109541280321947E+08, -7.097776850401342E+06,
2460931.500000000, A.D. 2025-Sep-13 00:00:00.0000, 1.923629886875166E+08, 2.214414344150326E+08, -7.521555745106399E+06,
2460938.500000000, A.D. 2025-Sep-20 00:00:00.0000, 1.826826128755538E+08, 2.315033765447225E+08, -7.930885641571552E+06,
2460945.500000000, A.D. 2025-Sep-27 00:00:00.0000, 1.726567992200032E+08, 2.411277577697649E+08, -8.325224215526104E+06,
2460952.500000000, A.D. 2025-Oct-04 00:00:00.0000, 1.623099982213322E+08, 2.503040717098061E+08, -8.704091101179093E+06,
2460959.500000000, A.D. 2025-Oct-11 00:00:00.0000, 1.516667513854649E+08, 2.590234648650606E+08, -9.067066997998223E+06,
2460966.500000000, A.D. 2025-Oct-18 00:00:00.0000, 1.407515614421547E+08, 2.672786872208939E+08, -9.413792292224675E+06,
2460973.500000000, A.D. 2025-Oct-25 00:00:00.0000, 1.295887731087434E+08, 2.750640326513973E+08, -9.743965268409044E+06,
2460980.500000000, A.D. 2025-Nov-01 00:00:00.0000, 1.182024650005764E+08, 2.823752709252136E+08, -1.005733997775234E+07,
2460987.500000000, A.D. 2025-Nov-08 00:00:00.0000, 1.066163530090895E+08, 2.892095730196826E+08, -1.035372383265446E+07,
2460994.500000000, A.D. 2025-Nov-15 00:00:00.0000, 9.485370533652237E+07, 2.955654313351386E+08, -1.063297500717202E+07,
2461001.500000000, A.D. 2025-Nov-22 00:00:00.0000, 8.293726941941833E+07, 3.014425765654427E+08, -1.089499972026750E+07,
2461008.500000000, A.D. 2025-Nov-29 00:00:00.0000, 7.088921024358353E+07, 3.068418937605707E+08, -1.113974934919693E+07,
2461015.500000000, A.D. 2025-Dec-06 00:00:00.0000, 5.873105728826659E+07, 3.117653386839828E+08, -1.136721722384010E+07,
2461022.500000000, A.D. 2025-Dec-13 00:00:00.0000, 4.648365992247865E+07, 3.162158521698537E+08, -1.157743545725560E+07,
2461029.500000000, A.D. 2025-Dec-20 00:00:00.0000, 3.416715405578400E+07, 3.201972744473014E+08, -1.177047208586884E+07,
2461036.500000000, A.D. 2025-Dec-27 00:00:00.0000, 2.180093823739000E+07, 3.237142628121892E+08, -1.194642824220455E+07,
2461043.500000000, A.D. 2026-Jan-03 00:00:00.0000, 9.403656976128904E+06, 3.267722126692582E+08, -1.210543530308482E+07,
2461050.500000000, A.D. 2026-Jan-10 00:00:00.0000, -3.006809385842347E+06, 3.293771817788041E+08, -1.224765210068415E+07,
2461057.500000000, A.D. 2026-Jan-17 00:00:00.0000, -1.541334877572666E+07, 3.315358180115194E+08, -1.237326224314147E+07,
2461064.500000000, A.D. 2026-Jan-24 00:00:00.0000, -2.779961612747388E+07, 3.332552909183831E+08, -1.248247156368464E+07,
2461071.500000000, A.D. 2026-Jan-31 00:00:00.0000, -4.015002743243168E+07, 3.345432272926655E+08, -1.257550571058702E+07,
2461078.500000000, A.D. 2026-Feb-07 00:00:00.0000, -5.244974970372169E+07, 3.354076507648945E+08, -1.265260789420582E+07,
2461085.500000000, A.D. 2026-Feb-14 00:00:00.0000, -6.468468721891858E+07, 3.358569254412515E+08, -1.271403681843770E+07,
2461092.500000000, A.D. 2026-Feb-21 00:00:00.0000, -7.684146422411907E+07, 3.358997041296723E+08, -1.276006478550024E+07,
2461099.500000000, A.D. 2026-Feb-28 00:00:00.0000, -8.890740570489225E+07, 3.355448822298202E+08, -1.279097577946270E+07,
2461106.500000000, A.D. 2026-Mar-07 00:00:00.0000, -1.008705187474312E+08, 3.348015552187976E+08, -1.280706349662304E+07,
2461113.500000000, A.D. 2026-Mar-14 00:00:00.0000, -1.127194721322558E+08, 3.336789772410462E+08, -1.280862976221368E+07,
2461120.500000000, A.D. 2026-Mar-21 00:00:00.0000, -1.244435727576661E+08, 3.321865235304127E+08, -1.279598325468168E+07,
2461127.500000000, A.D. 2026-Mar-28 00:00:00.0000, -1.360327412300876E+08, 3.303336575150479E+08, -1.276943826459438E+07,
2461134.500000000, A.D. 2026-Apr-04 00:00:00.0000, -1.474774875075353E+08, 3.281299014434789E+08, -1.272931350535043E+07,
2461141.500000000, A.D. 2026-Apr-11 00:00:00.0000, -1.587688865687000E+08, 3.255848099695471E+08, -1.267593102321427E+07,
2461148.500000000, A.D. 2026-Apr-18 00:00:00.0000, -1.698985541596049E+08, 3.227079464878849E+08, -1.260961521493268E+07,
2461155.500000000, A.D. 2026-Apr-25 00:00:00.0000, -1.808586227496823E+08, 3.195088620357173E+08, -1.253069194914317E+07,
2461162.500000000, A.D. 2026-May-02 00:00:00.0000, -1.916417178130932E+08, 3.159970765362423E+08, -1.243948778999878E+07,
2461169.500000000, A.D. 2026-May-09 00:00:00.0000, -2.022409344290157E+08, 3.121820621261269E+08, -1.233632933282192E+07,
2461176.500000000, A.D. 2026-May-16 00:00:00.0000, -2.126498139178880E+08, 3.080732285180725E+08, -1.222154266779977E+07,
2461183.500000000, A.D. 2026-May-23 00:00:00.0000, -2.228623205402560E+08, 3.036799112399175E+08, -1.209545288569108E+07,
2461190.500000000, A.D. 2026-May-30 00:00:00.0000, -2.328728204034447E+08, 2.990113629024348E+08, -1.195838340276599E+07,
2461197.500000000, A.D. 2026-Jun-06 00:00:00.0000, -2.426760629433257E+08, 2.940767440701653E+08, -1.181065533845402E+07,
2461204.500000000, A.D. 2026-Jun-13 00:00:00.0000, -2.522671613478070E+08, 2.888851137884099E+08, -1.165258726036017E+07,
2461211.500000000, A.D. 2026-Jun-20 00:00:00.0000, -2.616415724488254E+08, 2.834454225585811E+08, -1.148449500733693E+07,
2461218.500000000, A.D. 2026-Jun-27 00:00:00.0000, -2.707950777945307E+08, 2.777665073024957E+08, -1.130669145936219E+07,
2461225.500000000, A.D. 2026-Jul-04 00:00:00.0000, -2.797237659020109E+08, 2.718570874256816E+08, -1.111948631360452E+07,
2461232.500000000, A.D. 2026-Jul-11 00:00:00.0000, -2.884240154309418E+08, 2.657257617381169E+08, -1.092318589665270E+07,
2461239.500000000, A.D. 2026-Jul-18 00:00:00.0000, -2.968924791758827E+08, 2.593810061570141E+08, -1.071809301561150E+07,
2461246.500000000, A.D. 2026-Jul-25 00:00:00.0000, -3.051260688394400E+08, 2.528311721021230E+08, -1.050450684677094E+07,
2461253.500000000, A.D. 2026-Aug-01 00:00:00.0000, -3.131219405214418E+08, 2.460844854514323E+08, -1.028272286719017E+07,
2461260.500000000, A.D. 2026-Aug-08 00:00:00.0000, -3.208774806895843E+08, 2.391490459449205E+08, -1.005303284906474E+07,
2461267.500000000, A.D. 2026-Aug-15 00:00:00.0000, -3.283902921946267E+08, 2.320328274169898E+08, -9.815724915551588E+06,
2461274.500000000, A.D. 2026-Aug-22 00:00:00.0000, -3.356581810685851E+08, 2.247436800154417E+08, -9.571083486141652E+06,
2461281.500000000, A.D. 2026-Aug-29 00:00:00.0000, -3.426791463730449E+08, 2.172893329785234E+08, -9.319389012026697E+06,
2461288.500000000, A.D. 2026-Sep-05 00:00:00.0000, -3.494513709384289E+08, 2.096773950531548E+08, -9.060917929702029E+06,
$$EOE